#aV2009  1 16  0  0   .00000000      96 DD+AD WGS84 FIT  NGA
## 1514 432000.00000000   900.00000000 54847  .0000000000000
+   31     2  3  4  5  6  7  8  9 10 11 12 13 14 15 16 17 18
+         19 20 21 22 23 24 25 26 27 28 29 30 31 32  0  0  0
+          0  0  0  0  0  0  0  0  0  0  0  0  0  0  0  0  0
+          0  0  0  0  0  0  0  0  0  0  0  0  0  0  0  0  0
+          0  0  0  0  0  0  0  0  0  0  0  0  0  0  0  0  0
++         0  0  0  0  0  0  0  0  0  0  0  0  0  0  0  0  0
++         0  0  0  0  0  0  0  0  0  0  0  0  0  0  0  0  0
++         0  0  0  0  0  0  0  0  0  0  0  0  0  0  0  0  0
++         0  0  0  0  0  0  0  0  0  0  0  0  0  0  0  0  0
++         0  0  0  0  0  0  0  0  0  0  0  0  0  0  0  0  0
%c cc cc ccc ccc cccc cccc cccc cccc ccccc ccccc ccccc ccccc
%c cc cc ccc ccc cccc cccc cccc cccc ccccc ccccc ccccc ccccc
%f  0.0000000  0.000000000  0.00000000000  0.000000000000000
%f  0.0000000  0.000000000  0.00000000000  0.000000000000000
%i    0    0    0    0      0      0      0      0         0
%i    0    0    0    0      0      0      0      0         0
/*      NGA, ST. LOUIS,MO.                                  
/*   EPHEMERIS COMPUTED FROM  3 DAYS OF DATA                
/* CCCCCCCCCCCCCCCCCCCCCCCCCCCCCCCCCCCCCCCCCCCCCCCCCCCCCCCCC
/* CCCCCCCCCCCCCCCCCCCCCCCCCCCCCCCCCCCCCCCCCCCCCCCCCCCCCCCCC
*  2009  1 16  2 45   .00000000                                                 
P  2  13771.096933  22383.071552  -5209.504097    161.442531                    
V  2   -204.705811   7062.767686  30152.616173      -.017869                    
P  3 -19616.586331 -11249.197283 -14505.503925    339.516830                    
V  3  17910.881137  -2234.748495 -22609.353152       .052775                    
P  4   4215.528604  24868.597744   7560.436859   -301.321770                    
V  4  -7040.865681  -7812.785985  29505.338121      -.134364                    
P  5  19114.763272 -10145.811118  15020.477581   -550.343694                    
V  5  -8271.739336  18045.907859  22400.190457      -.561632                    
P  6 -15353.491685 -13661.752125 -16653.240699     90.926125                    
V  6  21691.302595   -503.925907 -19344.402252      -.122063                    
P  7 -10839.694250  11943.350955 -21098.921888     23.312599                    
V  7 -10980.272445 -24414.961167  -8291.045478      -.001611                    
P  8  -2261.295093  22068.198383 -14275.434274   -186.542203                    
V  8  -7754.139458 -16548.025267 -24929.457634      -.016070                    
P  9  16936.856711   6119.562706  18920.225907     35.214726                    
V  9   9412.735214  23551.567092 -15418.857625       .019437                    
P 10  10517.345587  11231.252281 -21780.190612     -9.583892                    
V 10 -17409.655035  21061.665662   2806.071702      -.006435                    
P 11 -19342.958399  -2464.169752  17971.515867     10.401993                    
V 11 -11321.303338 -20604.108805 -14493.707438      -.011467                    
P 12  19371.162653  -5524.278901  17333.341780   -325.168747                    
V 12 -12044.040162  18354.651097  19491.815417       .033479                    
P 13 -21009.084687   6134.411442 -15157.961019    285.119734                    
V 13 -18442.816277  -4642.321152  23876.713262       .014343                    
P 14    630.435125 -14715.372105  22227.285383   -167.698100                    
V 14  27485.013273   4450.126723   2074.294927       .051838                    
P 15  25332.627951   6385.742404  -4883.868175   -242.777672                    
V 15  -6521.594516   2098.822690 -30832.878345      -.055972                    
P 16  -4707.754709 -16427.410741 -20213.344717     81.705295                    
V 16  16967.904107 -19521.419860  12093.012673      -.026668                    
P 17  -3660.226187  14864.735320  21744.970425     44.392709                    
V 17 -27191.288441  -4180.734534  -1904.559715       .010529                    
P 18  16944.967299 -20180.233946   -518.357251    -92.689765                    
V 18   2255.302100   3020.755041 -31617.542603       .036886                    
P 19 -25549.326736  -7164.796884  -2760.405265     33.775328                    
V 19   4030.033456  -1958.319345 -31274.262017      -.004682                    
P 20 -19910.539389   8724.675491  15106.737875     93.553704                    
V 20   9498.993219 -17162.531294  22298.460969      -.009970                    
P 21   8613.416887 -16126.869948 -18825.786720     33.673495                    
V 21  10930.844665  22220.280004 -14484.761656      -.017567                    
P 22   9155.932790 -22773.174424  10233.323575    206.566630                    
V 22  10481.099531  -7972.382965 -27599.312923      -.005972                    
P 23 -25928.308431    921.093082  -6362.361502    385.161258                    
V 23  -7591.480078  -3198.949403  30440.892795       .008186                    
P 24  15549.715509  -1670.226575 -21303.323838    157.901538                    
V 24   8719.596329  26025.880146   4564.495260       .029863                    
P 25 -14057.393437   5190.226632 -21560.801005    176.853216                    
V 25 -13012.954766 -25054.277450   2593.832431       .265119                    
P 26  21894.123160  11319.326837 -11078.787988     36.533471                    
V 26 -13050.453117  -1325.707093 -27950.172944       .034324                    
P 27   3762.902578  23827.567618 -10368.191368     16.625751                    
V 27  -8362.389877 -11688.599888 -28177.117822       .031065                    
P 28 -10525.388699  22684.860635   8841.168845    -23.757213                    
V 28  -8797.690785   6703.573509 -29355.976451       .000715                    
P 29  21847.837176  -6293.423671 -13600.662120    -17.811073                    
V 29  16909.945621   4892.253680  24748.964588       .027631                    
P 30  18561.689864 -17250.708885   7450.992627    120.052729                    
V 30  -3199.539402   9938.706044  29640.209106       .023050                    
P 31  -6336.415415 -25135.841043   5693.027839    -47.871854                    
V 31   4992.602002   5462.987378  30959.050449      -.014749                    
P 32 -18019.521286   -549.262801  19839.958182    303.211330                    
V 32  15497.826365 -18832.660228  14071.698994      -.026833                    
EOF
